NORAD_CAT_ID,OBJECT_NAME,OBJECT_TYPE,EPOCH,MEAN_MOTION,ECCENTRICITY,INCLINATION,RA_OF_ASC_NODE,ARG_OF_PERICENTER,MEAN_ANOMALY,BSTAR,MEAN_MOTION_DOT,MEAN_MOTION_DDOT,TLE_LINE0,TLE_LINE1,TLE_LINE2,SEMIMAJOR_AXIS,PERIOD,APOGEE,PERIGEE,DECAYED
52996.0,STARLINK-4295,PAYLOAD,2023-02-22 02:55:50,15.08846352,0.0001227,53.2165,44.1464,102.3695,257.7435,0.0007815,0.00012174,0.0,0 STARLINK-4295,1 52996U 22076L   23053.12210774  .00012174  00000-0  78150-3 0  9994,2 52996  53.2165  44.1464 0001227 102.3695 257.7435 15.08846352 35504,6917.861,95.437,540.575,538.877,0.0
52996.0,STARLINK-4295,PAYLOAD,2023-02-22 10:52:45,15.08852117,0.0001377,53.2168,42.6608,89.224,270.891,0.0010916,0.00017133,0.0,0 STARLINK-4295,1 52996U 22076L   23053.45330722  .00017133  00000-0  10916-2 0  9991,2 52996  53.2168  42.6608 0001377  89.2240 270.8910 15.08852117 35088,6917.843,95.437,540.661,538.756,0.0
52996.0,STARLINK-4295,PAYLOAD,2023-02-22 15:38:54,15.08860036,0.0001361,53.2168,41.7679,92.3535,267.7613,0.0010848,0.00017028,0.0,0 STARLINK-4295,1 52996U 22076L   23053.65202451  .00017028  00000-0  10848-2 0  9997,2 52996  53.2168  41.7679 0001361  92.3535 267.7613 15.08860036 35119,6917.819,95.436,540.626,538.743,0.0
52996.0,STARLINK-4295,PAYLOAD,2023-02-22 23:35:51,15.08841967,0.0002209,53.2165,40.2786,98.7556,261.3686,0.00078459,0.00012221,0.0,0 STARLINK-4295,1 52996U 22076L   23053.98323146  .00012221  00000-0  78459-3 0  9991,2 52996  53.2165  40.2786 0002209  98.7556 261.3686 15.08841967 35633,6917.874,95.437,541.268,538.211,0.0
52996.0,STARLINK-4295,PAYLOAD,2023-02-23 10:43:32,15.08859187,0.000106,53.2169,38.2003,96.2744,263.8368,0.0017326,0.00027408,0.0,0 STARLINK-4295,1 52996U 22076L   23054.44690960  .00027408  00000-0  17326-2 0  9992,2 52996  53.2169  38.2003 0001060  96.2744 263.8368 15.08859187 35235,6917.822,95.436,540.42,538.953,0.0
52996.0,STARLINK-4295,PAYLOAD,2023-02-24 07:23:33,15.08869411,0.000104,53.2168,34.3347,90.8231,269.288,0.001718,0.00027182,0.0,0 STARLINK-4295,1 52996U 22076L   23055.30802512  .00027182  00000-0  17180-2 0  9993,2 52996  53.2168  34.3347 0001040  90.8231 269.2880 15.08869411 35837,6917.79,95.436,540.375,538.936,0.0
52996.0,STARLINK-4295,PAYLOAD,2023-02-25 05:38:57,15.08837739,0.0001393,53.2174,30.169,77.6215,282.4933,0.00038532,5.849e-05,0.0,0 STARLINK-4295,1 52996U 22076L   23056.23539240  .00005849  00000-0  38532-3 0  9992,2 52996  53.2174  30.1690 0001393  77.6215 282.4933 15.08837739 35974,6917.887,95.438,540.716,538.789,0.0
52996.0,STARLINK-4295,PAYLOAD,2023-02-25 13:35:53,15.0883645,0.0001468,53.2174,28.6822,74.0887,286.0267,0.00030745,4.608e-05,0.0,0 STARLINK-4295,1 52996U 22076L   23056.56659390  .00004608  00000-0  30745-3 0  9997,2 52996  53.2174  28.6822 0001468  74.0887 286.0267 15.08836450 35555,6917.891,95.438,540.772,538.741,0.0
52996.0,STARLINK-4295,PAYLOAD,2023-02-26 10:15:54,15.08854424,0.0001472,53.2167,24.8178,75.7953,284.3203,0.00098013,0.00015351,0.0,0 STARLINK-4295,1 52996U 22076L   23057.42771083  .00015351  00000-0  98013-3 0  9996,2 52996  53.2167  24.8178 0001472  75.7953 284.3203 15.08854424 36155,6917.836,95.437,540.72,538.683,0.0
52996.0,STARLINK-4295,PAYLOAD,2023-02-26 21:23:36,15.08831403,0.0001137,53.2172,22.736,83.7984,276.3137,-5.6615e-05,-1.188e-05,0.0,0 STARLINK-4295,1 52996U 22076L   23057.89139698 -.00001188  00000-0 -56615-4 0  9995,2 52996  53.2172  22.7360 0001137  83.7984 276.3137 15.08831403 35756,6917.907,95.438,540.558,538.985,0.0
52996.0,STARLINK-4295,PAYLOAD,2023-02-27 21:14:22,15.08880233,0.0001779,53.2178,18.2752,108.8323,251.2862,0.0010622,0.00016676,0.0,0 STARLINK-4295,1 52996U 22076L   23058.88497984  .00016676  00000-0  10622-2 0  9992,2 52996  53.2178  18.2752 0001779 108.8323 251.2862 15.08880233 35904,6917.757,95.435,540.853,538.392,0.0
52996.0,STARLINK-4295,PAYLOAD,2023-02-28 03:35:54,15.08908203,0.0002406,53.2158,17.0871,89.2345,270.8923,0.0021355,0.00033927,0.0,0 STARLINK-4295,1 52996U 22076L   23059.14993157  .00033927  00000-0  21355-2 0  9998,2 52996  53.2158  17.0871 0002406  89.2345 270.8923 15.08908203 36415,6917.672,95.433,541.201,537.873,0.0
52996.0,STARLINK-4295,PAYLOAD,2023-03-01 03:26:41,15.08825787,9.75e-05,53.2177,12.6246,109.9894,250.1203,-0.0007015,-0.0001143,0.0,0 STARLINK-4295,1 52996U 22076L   23060.14353267 -.00011430  00000-0 -70150-3 0  9997,2 52996  53.2177  12.6246 0000975 109.9894 250.1203 15.08825787 36564,6917.924,95.438,540.463,539.114,0.0
52996.0,STARLINK-4295,PAYLOAD,2023-03-01 08:12:50,15.08830398,0.0001101,53.2172,11.7325,106.3048,253.8065,-3.376e-06,-3.41e-06,0.0,0 STARLINK-4295,1 52996U 22076L   23060.34225578 -.00000341  00000-0 -33760-5 0  9999,2 52996  53.2172  11.7325 0001101 106.3048 253.8065 15.08830398 36594,6917.91,95.438,540.536,539.013,0.0
52996.0,STARLINK-4295,PAYLOAD,2023-03-02 03:17:28,15.08835789,6.25e-05,53.2171,8.1678,83.9594,276.147,-0.00010361,-1.936e-05,0.0,0 STARLINK-4295,1 52996U 22076L   23061.13714086 -.00001936  00000-0 -10361-3 0  9995,2 52996  53.2171   8.1678 0000625  83.9594 276.1470 15.08835789 36249,6917.893,95.438,540.191,539.326,0.0
52996.0,STARLINK-4295,PAYLOAD,2023-03-03 06:19:02,15.08859674,9.71e-05,53.2163,3.111,109.2303,250.8795,0.0011063,0.00017372,0.0,0 STARLINK-4295,1 52996U 22076L   23062.26322830  .00017372  00000-0  11063-2 0  9990,2 52996  53.2163   3.1110 0000971 109.2303 250.8795 15.08859674 36888,6917.82,95.436,540.357,539.014,0.0
52996.0,STARLINK-4295,PAYLOAD,2023-03-04 02:59:03,15.08871991,0.0001101,53.2164,359.2463,93.3089,266.803,0.00076126,0.00011859,0.0,0 STARLINK-4295,1 52996U 22076L   23063.12434040  .00011859  00000-0  76126-3 0  9999,2 52996  53.2164 359.2463 0001101  93.3089 266.8030 15.08871991 37016,6917.783,95.436,540.409,538.886,0.0
52996.0,STARLINK-4295,PAYLOAD,2023-03-04 04:34:25,15.08875782,0.0001186,53.2165,358.9486,90.9946,269.1182,0.00081689,0.00012749,0.0,0 STARLINK-4295,1 52996U 22076L   23063.19057851  .00012749  00000-0  81689-3 0  9996,2 52996  53.2165 358.9486 0001186  90.9946 269.1182 15.08875782 36550,6917.771,95.435,540.456,538.816,0.0
52996.0,STARLINK-4295,PAYLOAD,2023-03-04 18:52:54,15.08845218,0.0001966,53.2162,356.2724,86.731,273.3907,-4.0407e-05,-9.31e-06,0.0,0 STARLINK-4295,1 52996U 22076L   23063.78674457 -.00000931  00000-0 -40407-4 0  9994,2 52996  53.2162 356.2724 0001966  86.7310 273.3907 15.08845218 37113,6917.864,95.437,541.089,538.369,0.0
52996.0,STARLINK-4295,PAYLOAD,2023-03-04 20:28:17,15.08837862,0.0001726,53.2158,355.9726,94.9231,265.1958,-0.00017445,-3.063e-05,0.0,0 STARLINK-4295,1 52996U 22076L   23063.85298552 -.00003063  00000-0 -17445-3 0  9994,2 52996  53.2158 355.9726 0001726  94.9231 265.1958 15.08837862 36652,6917.887,95.438,540.946,538.558,0.0
52996.0,STARLINK-4295,PAYLOAD,2023-03-05 04:25:13,15.08833749,0.0001202,53.2163,354.4869,93.4789,266.634,-0.00014555,-2.603e-05,0.0,0 STARLINK-4295,1 52996U 22076L   23064.18418848 -.00002603  00000-0 -14555-3 0  9991,2 52996  53.2163 354.4869 0001202  93.4789 266.6340 15.08833749 37170,6917.899,95.438,540.596,538.933,0.0
52996.0,STARLINK-4295,PAYLOAD,2023-03-06 02:40:37,15.08854633,0.0001448,53.2165,350.3255,78.9329,281.1826,0.00066921,0.00010383,0.0,0 STARLINK-4295,1 52996U 22076L   23065.11154986  .00010383  00000-0  66921-3 0  9991,2 52996  53.2165 350.3255 0001448  78.9329 281.1826 15.08854633 37318,6917.836,95.437,540.702,538.699,0.0
52996.0,STARLINK-4295,PAYLOAD,2023-03-06 07:26:46,15.08867543,0.0001234,53.2159,349.4326,73.9404,286.1724,0.00087874,0.00013735,0.0,0 STARLINK-4295,1 52996U 22076L   23065.31026235  .00013735  00000-0  87874-3 0  9992,2 52996  53.2159 349.4326 0001234  73.9404 286.1724 15.08867543 37340,6917.796,95.436,540.515,538.808,0.0
52996.0,STARLINK-4295,PAYLOAD,2023-03-06 18:34:30,15.08810215,0.0001566,53.2163,347.35,66.493,293.6226,-0.0003007,-5.067e-05,0.0,0 STARLINK-4295,1 52996U 22076L   23065.77396912 -.00005067  00000-0 -30070-3 0  9991,2 52996  53.2163 347.3500 0001566  66.4930 293.6226 15.08810215 37417,6917.971,95.439,540.92,538.753,0.0
52996.0,STARLINK-4295,PAYLOAD,2023-03-07 04:06:49,15.08839685,0.0001453,53.2157,345.5649,62.6804,297.4336,0.00042529,6.487e-05,0.0,0 STARLINK-4295,1 52996U 22076L   23066.17140463  .00006487  00000-0  42529-3 0  9991,2 52996  53.2157 345.5649 0001453  62.6804 297.4336 15.08839685 37479,6917.881,95.438,540.752,538.741,0.0
52996.0,STARLINK-4295,PAYLOAD,2023-03-08 18:16:04,15.08838028,0.0001435,53.2159,338.4298,69.3211,290.7935,6.8648e-05,8.05e-06,0.0,0 STARLINK-4295,1 52996U 22076L   23067.76116413  .00000805  00000-0  68648-4 0  9994,2 52996  53.2159 338.4298 0001435  69.3211 290.7935 15.08838028 37716,6917.886,95.438,540.744,538.759,0.0
52996.0,STARLINK-4295,PAYLOAD,2023-03-09 00:37:36,15.08849595,0.0001054,53.2157,337.2399,75.1623,284.9486,0.0002672,3.968e-05,0.0,0 STARLINK-4295,1 52996U 22076L   23068.02611903  .00003968  00000-0  26720-3 0  9995,2 52996  53.2157 337.2399 0001054  75.1623 284.9486 15.08849595 37753,6917.851,95.437,540.445,538.987,0.0
52996.0,STARLINK-4295,PAYLOAD,2023-03-09 21:17:37,15.08856676,0.0001262,53.2162,333.3749,72.8781,287.2349,0.00081265,0.00012675,0.0,0 STARLINK-4295,1 52996U 22076L   23068.88723656  .00012675  00000-0  81265-3 0  9998,2 52996  53.2162 333.3749 0001262  72.8781 287.2349 15.08856676 37410,6917.829,95.436,540.567,538.821,0.0
52996.0,STARLINK-4295,PAYLOAD,2023-03-10 10:00:42,15.08849137,0.000143,53.2158,330.9956,81.0004,279.1149,0.00046651,7.146e-05,0.0,0 STARLINK-4295,1 52996U 22076L   23069.41715571  .00007146  00000-0  46651-3 0  9992,2 52996  53.2158 330.9956 0001430  81.0004 279.1149 15.08849137 37967,6917.852,95.437,540.707,538.728,0.0
52996.0,STARLINK-4295,PAYLOAD,2023-03-10 21:08:23,15.08849511,0.0001919,53.2159,328.9167,130.5623,229.5536,0.00019291,2.784e-05,0.0,0 STARLINK-4295,1 52996U 22076L   23069.88083291  .00002784  00000-0  19291-3 0  9993,2 52996  53.2159 328.9167 0001919 130.5623 229.5536 15.08849511 37569,6917.851,95.437,541.044,538.389,0.0
